{"type": "FeatureCollection", "features": [ {"type": "Feature", "properties": {"norad_id": 66353, "name": "STARLINK-35869", "group": "last-30-days", "lat": -53.07812491808633, "lon": -129.9459206551575, "alt_km": 376.7690839232164, "timestamp": "2025-12-02T21:34:00.040909+00:00", "meta": {"OBJECT_NAME": "STARLINK-35869", "OBJECT_ID": "2025-254F", "EPOCH": "2025-12-02T12:00:05.998752", "MEAN_MOTION": 15.67452745, "ECCENTRICITY": 0.0001294, "INCLINATION": 53.1587, "RA_OF_ASC_NODE": 325.8132, "ARG_OF_PERICENTER": 80.2332, "MEAN_ANOMALY": 98.5261, "EPHEMERIS_TYPE": 0, "CLASSIFICATION_TYPE": "U", "NORAD_CAT_ID": 66353, "ELEMENT_SET_NO": 999, "REV_AT_EPOCH": 527, "BSTAR": -0.020275, "MEAN_MOTION_DOT": -0.01975709, "MEAN_MOTION_DDOT": 0}, "tle": {"line1": "1 66353U 25254F   25336.50006943 -.01975709  00000+0 -20275-1 0  9993", "line2": "2 66353  53.1587 325.8132 0001294  80.2332  98.5261 15.67452745  5273"}}, "geometry": {"type": "Point", "coordinates": [-129.9459206551575, -53.07812491808633]}}, {"type": "Feature", "properties": {"norad_id": 66354, "name": "STARLINK-35895", "group": "last-30-days", "lat": 37.81946355234944, "lon": 108.54491323446847, "alt_km": 406.3347487301262, "timestamp": "2025-12-02T21:34:00.040920+00:00", "meta": {"OBJECT_NAME": "STARLINK-35895", "OBJECT_ID": "2025-254G", "EPOCH": "2025-12-02T12:00:05.998752", "MEAN_MOTION": 15.53786389, "ECCENTRICITY": 0.0001185, "INCLINATION": 53.1585, "RA_OF_ASC_NODE": 326.051, "ARG_OF_PERICENTER": 66.9203, "MEAN_ANOMALY": 353.9519, "EPHEMERIS_TYPE": 0, "CLASSIFICATION_TYPE": "U", "NORAD_CAT_ID": 66354, "ELEMENT_SET_NO": 999, "REV_AT_EPOCH": 527, "BSTAR": -0.042443, "MEAN_MOTION_DOT": -0.02417187, "MEAN_MOTION_DDOT": 0}, "tle": {"line1": "1 66354U 25254G   25336.50006943 -.02417187  00000+0 -42443-1 0  9997", "line2": "2 66354  53.1585 326.0510 0001185  66.9203 353.9519 15.53786389  5275"}}, "geometry": {"type": "Point", "coordinates": [108.54491323446847, 37.81946355234944]}}, {"type": "Feature", "properties": {"norad_id": 66355, "name": "STARLINK-35861", "group": "last-30-days", "lat": -53.11114171024082, "lon": -123.58319882803879, "alt_km": 376.79012532774595, "timestamp": "2025-12-02T21:34:00.040930+00:00", "meta": {"OBJECT_NAME": "STARLINK-35861", "OBJECT_ID": "2025-254H", "EPOCH": "2025-12-02T12:00:05.998752", "MEAN_MOTION": 15.67452033, "ECCENTRICITY": 0.0001338, "INCLINATION": 53.1587, "RA_OF_ASC_NODE": 325.8054, "ARG_OF_PERICENTER": 82.2832, "MEAN_ANOMALY": 100.3075, "EPHEMERIS_TYPE": 0, "CLASSIFICATION_TYPE": "U", "NORAD_CAT_ID": 66355, "ELEMENT_SET_NO": 999, "REV_AT_EPOCH": 527, "BSTAR": -0.020242, "MEAN_MOTION_DOT": -0.01972829, "MEAN_MOTION_DDOT": 0}, "tle": {"line1": "1 66355U 25254H   25336.50006943 -.01972829  00000+0 -20242-1 0  9999", "line2": "2 66355  53.1587 325.8054 0001338  82.2832 100.3075 15.67452033  5279"}}, "geometry": {"type": "Point", "coordinates": [-123.58319882803879, -53.11114171024082]}}, {"type": "Feature", "properties": {"norad_id": 66356, "name": "STARLINK-35851", "group": "last-30-days", "lat": -53.0001356791811, "lon": -120.40488895653255, "alt_km": 376.830425843239, "timestamp": "2025-12-02T21:34:00.040941+00:00", "meta": {"OBJECT_NAME": "STARLINK-35851", "OBJECT_ID": "2025-254J", "EPOCH": "2025-12-02T12:00:05.998752", "MEAN_MOTION": 15.67463602, "ECCENTRICITY": 0.0001371, "INCLINATION": 53.1589, "RA_OF_ASC_NODE": 325.8008, "ARG_OF_PERICENTER": 84.9648, "MEAN_ANOMALY": 99.5428, "EPHEMERIS_TYPE": 0, "CLASSIFICATION_TYPE": "U", "NORAD_CAT_ID": 66356, "ELEMENT_SET_NO": 999, "REV_AT_EPOCH": 527, "BSTAR": -0.02046, "MEAN_MOTION_DOT": -0.0199246, "MEAN_MOTION_DDOT": 0}, "tle": {"line1": "1 66356U 25254J   25336.50006943 -.01992460  00000+0 -20460-1 0  9995", "line2": "2 66356  53.1589 325.8008 0001371  84.9648  99.5428 15.67463602  5277"}}, "geometry": {"type": "Point", "coordinates": [-120.40488895653255, -53.0001356791811]}}, {"type": "Feature", "properties": {"norad_id": 66357, "name": "STARLINK-35817", "group": "last-30-days", "lat": -52.805104747155426, "lon": -117.2581395434125, "alt_km": 376.75777633266716, "timestamp": "2025-12-02T21:34:00.040950+00:00", "meta": {"OBJECT_NAME": "STARLINK-35817", "OBJECT_ID": "2025-254K", "EPOCH": "2025-12-02T12:00:05.998752", "MEAN_MOTION": 15.67452307, "ECCENTRICITY": 0.0001304, "INCLINATION": 53.1588, "RA_OF_ASC_NODE": 325.7967, "ARG_OF_PERICENTER": 85.0926, "MEAN_ANOMALY": 101.3327, "EPHEMERIS_TYPE": 0, "CLASSIFICATION_TYPE": "U", "NORAD_CAT_ID": 66357, "ELEMENT_SET_NO": 999, "REV_AT_EPOCH": 527, "BSTAR": -0.020255, "MEAN_MOTION_DOT": -0.01974007, "MEAN_MOTION_DDOT": 0}, "tle": {"line1": "1 66357U 25254K   25336.50006943 -.01974007  00000+0 -20255-1 0  9995", "line2": "2 66357  53.1588 325.7967 0001304  85.0926 101.3327 15.67452307  5277"}}, "geometry": {"type": "Point", "coordinates": [-117.2581395434125, -52.805104747155426]}}, {"type": "Feature", "properties": {"norad_id": 66358, "name": "STARLINK-35807", "group": "last-30-days", "lat": -52.52691885050755, "lon": -114.14041846293783, "alt_km": 376.7105963596923, "timestamp": "2025-12-02T21:34:00.040961+00:00", "meta": {"OBJECT_NAME": "STARLINK-35807", "OBJECT_ID": "2025-254L", "EPOCH": "2025-12-02T12:00:05.998752", "MEAN_MOTION": 15.67456069, "ECCENTRICITY": 0.000124, "INCLINATION": 53.1587, "RA_OF_ASC_NODE": 325.7922, "ARG_OF_PERICENTER": 90.3044, "MEAN_ANOMALY": 98.0346, "EPHEMERIS_TYPE": 0, "CLASSIFICATION_TYPE": "U", "NORAD_CAT_ID": 66358, "ELEMENT_SET_NO": 999, "REV_AT_EPOCH": 527, "BSTAR": -0.020293, "MEAN_MOTION_DOT": -0.01977499, "MEAN_MOTION_DDOT": 0}, "tle": {"line1": "1 66358U 25254L   25336.50006943 -.01977499  00000+0 -20293-1 0  9996", "line2": "2 66358  53.1587 325.7922 0001240  90.3044  98.0346 15.67456069  5279"}}, "geometry": {"type": "Point", "coordinates": [-114.14041846293783, -52.52691885050755]}}, {"type": "Feature", "properties": {"norad_id": 66359, "name": "STARLINK-35805", "group": "last-30-days", "lat": -52.16875314462899, "lon": -111.07063612084686, "alt_km": 376.7850282396048, "timestamp": "2025-12-02T21:34:00.040971+00:00", "meta": {"OBJECT_NAME": "STARLINK-35805", "OBJECT_ID": "2025-254M", "EPOCH": "2025-12-02T12:00:05.998752", "MEAN_MOTION": 15.67451225, "ECCENTRICITY": 0.0001388, "INCLINATION": 53.1591, "RA_OF_ASC_NODE": 325.7888, "ARG_OF_PERICENTER": 85.5667, "MEAN_ANOMALY": 104.6917, "EPHEMERIS_TYPE": 0, "CLASSIFICATION_TYPE": "U", "NORAD_CAT_ID": 66359, "ELEMENT_SET_NO": 999, "REV_AT_EPOCH": 524, "BSTAR": -0.020229, "MEAN_MOTION_DOT": -0.01971766, "MEAN_MOTION_DDOT": 0}, "tle": {"line1": "1 66359U 25254M   25336.50006943 -.01971766  00000+0 -20229-1 0  9997", "line2": "2 66359  53.1591 325.7888 0001388  85.5667 104.6917 15.67451225  5240"}}, "geometry": {"type": "Point", "coordinates": [-111.07063612084686, -52.16875314462899]}}, {"type": "Feature", "properties": {"norad_id": 66360, "name": "STARLINK-35823", "group": "last-30-days", "lat": -51.21789332577994, "lon": -105.09793903861751, "alt_km": 376.72351329425874, "timestamp": "2025-12-02T21:34:00.040981+00:00", "meta": {"OBJECT_NAME": "STARLINK-35823", "OBJECT_ID": "2025-254N", "EPOCH": "2025-12-02T12:00:05.998752", "MEAN_MOTION": 15.67451074, "ECCENTRICITY": 0.0001346, "INCLINATION": 53.1594, "RA_OF_ASC_NODE": 325.78, "ARG_OF_PERICENTER": 86.9314, "MEAN_ANOMALY": 107.1622, "EPHEMERIS_TYPE": 0, "CLASSIFICATION_TYPE": "U", "NORAD_CAT_ID": 66360, "ELEMENT_SET_NO": 999, "REV_AT_EPOCH": 527, "BSTAR": -0.020239, "MEAN_MOTION_DOT": -0.01972585, "MEAN_MOTION_DDOT": 0}, "tle": {"line1": "1 66360U 25254N   25336.50006943 -.01972585  00000+0 -20239-1 0  9990", "line2": "2 66360  53.1594 325.7800 0001346  86.9314 107.1622 15.67451074  5273"}}, "geometry": {"type": "Point", "coordinates": [-105.09793903861751, -51.21789332577994]}}, {"type": "Feature", "properties": {"norad_id": 66361, "name": "STARLINK-35813", "group": "last-30-days", "lat": -51.73085550663695, "lon": -108.05116102174317, "alt_km": 376.80306846928215, "timestamp": "2025-12-02T21:34:00.040991+00:00", "meta": {"OBJECT_NAME": "STARLINK-35813", "OBJECT_ID": "2025-254P", "EPOCH": "2025-12-02T12:00:05.998752", "MEAN_MOTION": 15.67455018, "ECCENTRICITY": 0.0001414, "INCLINATION": 53.159, "RA_OF_ASC_NODE": 325.7849, "ARG_OF_PERICENTER": 88.8309, "MEAN_ANOMALY": 103.3447, "EPHEMERIS_TYPE": 0, "CLASSIFICATION_TYPE": "U", "NORAD_CAT_ID": 66361, "ELEMENT_SET_NO": 999, "REV_AT_EPOCH": 527, "BSTAR": -0.020311, "MEAN_MOTION_DOT": -0.01979101, "MEAN_MOTION_DDOT": 0}, "tle": {"line1": "1 66361U 25254P   25336.50006943 -.01979101  00000+0 -20311-1 0  9993", "line2": "2 66361  53.1590 325.7849 0001414  88.8309 103.3447 15.67455018  5279"}}, "geometry": {"type": "Point", "coordinates": [-108.05116102174317, -51.73085550663695]}}, {"type": "Feature", "properties": {"norad_id": 66362, "name": "STARLINK-35822", "group": "last-30-days", "lat": -49.974905923175974, "lon": -99.40156022209509, "alt_km": 376.62706399376657, "timestamp": "2025-12-02T21:34:00.041004+00:00", "meta": {"OBJECT_NAME": "STARLINK-35822", "OBJECT_ID": "2025-254Q", "EPOCH": "2025-12-02T12:00:05.998752", "MEAN_MOTION": 15.67454333, "ECCENTRICITY": 0.0001262, "INCLINATION": 53.159, "RA_OF_ASC_NODE": 325.7728, "ARG_OF_PERICENTER": 89.0274, "MEAN_ANOMALY": 108.899, "EPHEMERIS_TYPE": 0, "CLASSIFICATION_TYPE": "U", "NORAD_CAT_ID": 66362, "ELEMENT_SET_NO": 999, "REV_AT_EPOCH": 527, "BSTAR": -0.020293, "MEAN_MOTION_DOT": -0.01977385, "MEAN_MOTION_DDOT": 0}, "tle": {"line1": "1 66362U 25254Q   25336.50006943 -.01977385  00000+0 -20293-1 0  9995", "line2": "2 66362  53.1590 325.7728 0001262  89.0274 108.8990 15.67454333  5273"}}, "geometry": {"type": "Point", "coordinates": [-99.40156022209509, -49.974905923175974]}}]}